{"signature":{"version":"1.3","source":"NASA/JPL Small-Body Database (SBDB) API"},"object":{"des":"1995 O1","orbit_class":{"name":"Comet","code":"COM"},"fullname":"C/1995 O1 (Hale-Bopp)","orbit_id":"226","prefix":"C","spkid":"1000132","neo":false,"pha":false,"kind":"cu"},"orbit":{"equinox":"J2000","pe_used":"DE441","sb_used":"SB441-N16","not_valid_after":null,"moid":".0878151","n_dop_obs_used":null,"moid_jup":".0790606","t_jup":"0.044","rms":".38349","soln_date":"2022-08-01 01:56:46","epoch":"2459837.5","two_body":null,"model_pars":[],"producer":"Davide Farnocchia","not_valid_before":null,"elements":[{"units":null,"value":".9949810027633206","title":"eccentricity","name":"e","label":"e","sigma":"2.3273E-7"},{"units":"au","value":"177.4333839117583","name":"a","title":"semi-major axis","label":"a","sigma":".0082992"},{"title":"perihelion distance","name":"q","value":".890537663547794","units":"au","sigma":"1.2519E-6","label":"q"},{"label":"i","sigma":"1.8909E-5","value":"89.28759424740302","units":"deg","name":"i","title":"inclination; angle with respect to x-y ecliptic plane"},{"sigma":"4.1281E-5","label":"node","title":"longitude of the ascending node","name":"om","value":"282.7334213961641","units":"deg"},{"label":"peri","sigma":"4.2164E-5","value":"130.4146670659176","units":"deg","name":"w","title":"argument of perihelion"},{"sigma":".00027255","label":"M","title":"mean anomaly","name":"ma","value":"3.878386339423241","units":"deg"},{"value":"2450537.134907143944","units":"TDB","title":"time of perihelion passage","name":"tp","label":"tp","sigma":".0014097"},{"label":"period","sigma":"60.568","value":"863279.5034870314","units":"d","title":"sidereal orbital period","name":"per"},{"sigma":"2.9258E-8","label":"n","name":"n","title":"mean motion","units":"deg/d","value":".0004170144183266921"},{"label":"Q","sigma":".016557","units":"au","value":"353.9762301599687","title":"aphelion distance","name":"ad"}],"data_arc":"10665","n_del_obs_used":null,"first_obs":"1993-04-27","condition_code":null,"orbit_id":"226","comment":null,"cov_epoch":"2459837.5","source":"JPL","n_obs_used":66,"last_obs":"2022-07-09"}}
